start=new Date('2023-07-04T00:00:00.000Z').valueOf();
sats=[{"MEAN_MOTION_DDOT":"0.0000000000000","MEAN_ANOMALY":"250.5780","SEMIMAJOR_AXIS":"6925.274","ELEMENT_SET_NO":"999","MEAN_MOTION":"15.06424476","OBJECT_TYPE":"PAYLOAD","COUNTRY_CODE":"US","EPOCH":"2023-06-21T19:52:10.955712","PERIAPSIS":"546.347","LAUNCH_DATE":"2020-01-29","CENTER_NAME":"EARTH","MEAN_MOTION_DOT":"0.00017004","RCS_SIZE":"LARGE","TLE_LINE1":"1 45098U 20006BG  23172.82790458  .00017004  00000-0  11569-2 0  9998","REV_AT_EPOCH":"18752","FILE":"3940263","ECCENTRICITY":"0.00011430","PERIOD":"95.591","TIME_SYSTEM":"UTC","ARG_OF_PERICENTER":"109.5332","SITE":"AFETR","REF_FRAME":"TEME","GP_ID":"234484363","OBJECT_NAME":"STARLINK-1184","DECAY_DATE":null,"MEAN_ELEMENT_THEORY":"SGP4","NORAD_CAT_ID":"45098","INCLINATION":"53.0547","TLE_LINE2":"2 45098  53.0547  19.2582 0001143 109.5332 250.5780 15.06424476187520","EPHEMERIS_TYPE":"0","CLASSIFICATION_TYPE":"U","OBJECT_ID":"2020-006BG","BSTAR":"0.00115690000000","RA_OF_ASC_NODE":"19.2582","APOAPSIS":"547.930"},{"FILE":"3940263","REV_AT_EPOCH":"18753","TLE_LINE1":"1 45099U 20006BH  23172.86107578  .00016821  00000-0  11446-2 0  9998","RCS_SIZE":"LARGE","GP_ID":"234485611","REF_FRAME":"TEME","SITE":"AFETR","PERIOD":"95.590","ARG_OF_PERICENTER":"104.9226","TIME_SYSTEM":"UTC","ECCENTRICITY":"0.00013590","MEAN_MOTION":"15.06426791","ELEMENT_SET_NO":"999","SEMIMAJOR_AXIS":"6925.266","MEAN_ANOMALY":"255.1914","MEAN_MOTION_DDOT":"0.0000000000000","MEAN_MOTION_DOT":"0.00016821","CENTER_NAME":"EARTH","PERIAPSIS":"546.190","LAUNCH_DATE":"2020-01-29","EPOCH":"2023-06-21T20:39:56.947392","COUNTRY_CODE":"US","OBJECT_TYPE":"PAYLOAD","OBJECT_ID":"2020-006BH","CLASSIFICATION_TYPE":"U","EPHEMERIS_TYPE":"0","TLE_LINE2":"2 45099  53.0543  19.1126 0001359 104.9226 255.1914 15.06426791187533","APOAPSIS":"548.073","RA_OF_ASC_NODE":"19.1126","BSTAR":"0.00114460000000","DECAY_DATE":null,"OBJECT_NAME":"STARLINK-1186","INCLINATION":"53.0543","MEAN_ELEMENT_THEORY":"SGP4","NORAD_CAT_ID":"45099"},{"FILE":"3940263","TLE_LINE1":"1 45100U 20006BJ  23172.82421703  .00020240  00000-0  13729-2 0  9992","REV_AT_EPOCH":"18752","RCS_SIZE":"LARGE","GP_ID":"234485860","REF_FRAME":"TEME","SITE":"AFETR","ARG_OF_PERICENTER":"105.2656","PERIOD":"95.591","TIME_SYSTEM":"UTC","ECCENTRICITY":"0.00009400","MEAN_MOTION":"15.06424300","ELEMENT_SET_NO":"999","SEMIMAJOR_AXIS":"6925.274","MEAN_ANOMALY":"254.8437","MEAN_MOTION_DDOT":"0.0000000000000","CENTER_NAME":"EARTH","MEAN_MOTION_DOT":"0.00020240","PERIAPSIS":"546.488","LAUNCH_DATE":"2020-01-29","EPOCH":"2023-06-21T19:46:52.351392","COUNTRY_CODE":"US","OBJECT_TYPE":"PAYLOAD","OBJECT_ID":"2020-006BJ","CLASSIFICATION_TYPE":"U","EPHEMERIS_TYPE":"0","TLE_LINE2":"2 45100  53.0545  19.2748 0000940 105.2656 254.8437 15.06424300187524","APOAPSIS":"547.790","RA_OF_ASC_NODE":"19.2748","BSTAR":"0.00137290000000","DECAY_DATE":null,"OBJECT_NAME":"STARLINK-1193","INCLINATION":"53.0545","MEAN_ELEMENT_THEORY":"SGP4","NORAD_CAT_ID":"45100"},{"SEMIMAJOR_AXIS":"6925.270","ELEMENT_SET_NO":"999","MEAN_MOTION":"15.06425737","MEAN_MOTION_DDOT":"0.0000000000000","MEAN_ANOMALY":"250.7820","EPOCH":"2023-06-21T19:40:12.148320","MEAN_MOTION_DOT":"0.00019451","CENTER_NAME":"EARTH","PERIAPSIS":"546.300","LAUNCH_DATE":"2020-01-29","OBJECT_TYPE":"PAYLOAD","COUNTRY_CODE":"US","FILE":"3940263","TLE_LINE1":"1 45101U 20006BK  23172.81958505  .00019451  00000-0  13202-2 0  9995","REV_AT_EPOCH":"18752","RCS_SIZE":"LARGE","REF_FRAME":"TEME","GP_ID":"234484113","ECCENTRICITY":"0.00012050","SITE":"AFETR","PERIOD":"95.591","TIME_SYSTEM":"UTC","ARG_OF_PERICENTER":"109.3299","DECAY_DATE":null,"OBJECT_NAME":"STARLINK-1194","NORAD_CAT_ID":"45101","MEAN_ELEMENT_THEORY":"SGP4","INCLINATION":"53.0545","EPHEMERIS_TYPE":"0","TLE_LINE2":"2 45101  53.0545  19.2891 0001205 109.3299 250.7820 15.06425737187523","CLASSIFICATION_TYPE":"U","OBJECT_ID":"2020-006BK","RA_OF_ASC_NODE":"19.2891","APOAPSIS":"547.969","BSTAR":"0.00132020000000"},{"REV_AT_EPOCH":"18752","TLE_LINE1":"1 45102U 20006BL  23172.84265255  .00018835  00000-0  12791-2 0  9999","RCS_SIZE":"LARGE","FILE":"3940263","SITE":"AFETR","ARG_OF_PERICENTER":"67.0599","PERIOD":"95.591","TIME_SYSTEM":"UTC","ECCENTRICITY":"0.00009870","GP_ID":"234484864","REF_FRAME":"TEME","MEAN_ANOMALY":"293.0494","MEAN_MOTION_DDOT":"0.0000000000000","MEAN_MOTION":"15.06425721","SEMIMAJOR_AXIS":"6925.270","ELEMENT_SET_NO":"999","COUNTRY_CODE":"US","OBJECT_TYPE":"PAYLOAD","MEAN_MOTION_DOT":"0.00018835","CENTER_NAME":"EARTH","LAUNCH_DATE":"2020-01-29","PERIAPSIS":"546.451","EPOCH":"2023-06-21T20:13:25.180320","CLASSIFICATION_TYPE":"U","OBJECT_ID":"2020-006BL","EPHEMERIS_TYPE":"0","TLE_LINE2":"2 45102  53.0541  19.1962 0000987  67.0599 293.0494 15.06425721187527","BSTAR":"0.00127910000000","APOAPSIS":"547.818","RA_OF_ASC_NODE":"19.1962","OBJECT_NAME":"STARLINK-1195","DECAY_DATE":null,"INCLINATION":"53.0541","MEAN_ELEMENT_THEORY":"SGP4","NORAD_CAT_ID":"45102"},{"APOAPSIS":"516.463","RA_OF_ASC_NODE":"13.2080","BSTAR":"0.00187600000000","CLASSIFICATION_TYPE":"U","OBJECT_ID":"2020-006BM","TLE_LINE2":"2 45103  53.0548  13.2080 0003225 102.4286 257.7068 15.17222893187617","EPHEMERIS_TYPE":"0","INCLINATION":"53.0548","NORAD_CAT_ID":"45103","MEAN_ELEMENT_THEORY":"SGP4","OBJECT_NAME":"STARLINK-1196","DECAY_DATE":null,"GP_ID":"234485111","REF_FRAME":"TEME","PERIOD":"94.910","ARG_OF_PERICENTER":"102.4286","TIME_SYSTEM":"UTC","SITE":"AFETR","ECCENTRICITY":"0.00032250","FILE":"3940263","TLE_LINE1":"1 45103U 20006BM  23172.83057804  .00037647  00000-0  18760-2 0  9992","RCS_SIZE":"LARGE","REV_AT_EPOCH":"18761","LAUNCH_DATE":"2020-01-29","PERIAPSIS":"512.017","MEAN_MOTION_DOT":"0.00037647","CENTER_NAME":"EARTH","EPOCH":"2023-06-21T19:56:01.942656","COUNTRY_CODE":"US","OBJECT_TYPE":"PAYLOAD","MEAN_MOTION":"15.17222893","ELEMENT_SET_NO":"999","SEMIMAJOR_AXIS":"6892.375","MEAN_ANOMALY":"257.7068","MEAN_MOTION_DDOT":"0.0000000000000"},{"APOAPSIS":"548.524","RA_OF_ASC_NODE":"126.6873","BSTAR":"0.00029835000000","CLASSIFICATION_TYPE":"U","OBJECT_ID":"2020-012A","EPHEMERIS_TYPE":"0","TLE_LINE2":"2 45178  53.0534 126.6873 0001841  77.6696 282.4499 15.06388303186454","INCLINATION":"53.0534","MEAN_ELEMENT_THEORY":"SGP4","NORAD_CAT_ID":"45178","OBJECT_NAME":"STARLINK-1138","DECAY_DATE":null,"GP_ID":"234698095","REF_FRAME":"TEME","SITE":"AFETR","PERIOD":"95.593","ARG_OF_PERICENTER":"77.6696","TIME_SYSTEM":"UTC","ECCENTRICITY":"0.00018410","FILE":"3948792","REV_AT_EPOCH":"18645","TLE_LINE1":"1 45178U 20012A   23184.53814350  .00004164  00000-0  29835-3 0  9992","RCS_SIZE":"LARGE","MEAN_MOTION_DOT":"0.00004164","CENTER_NAME":"EARTH","LAUNCH_DATE":"2020-02-17","PERIAPSIS":"545.974","EPOCH":"2023-07-03T12:54:55.598400","COUNTRY_CODE":"US","OBJECT_TYPE":"PAYLOAD","MEAN_MOTION":"15.06388303","ELEMENT_SET_NO":"999","SEMIMAJOR_AXIS":"6925.384","MEAN_ANOMALY":"282.4499","MEAN_MOTION_DDOT":"0.0000000000000"},{"TLE_LINE1":"1 45179U 20012B   23184.07644797 -.00000472  00000-0 -12815-4 0  9999","RCS_SIZE":"LARGE","REV_AT_EPOCH":"18638","FILE":"3948094","SITE":"AFETR","ARG_OF_PERICENTER":"86.5281","PERIOD":"95.592","TIME_SYSTEM":"UTC","ECCENTRICITY":"0.00012170","GP_ID":"234683324","REF_FRAME":"TEME","MEAN_ANOMALY":"273.5847","MEAN_MOTION_DDOT":"0.0000000000000","MEAN_MOTION":"15.06399544","SEMIMAJOR_AXIS":"6925.350","ELEMENT_SET_NO":"999","COUNTRY_CODE":"US","OBJECT_TYPE":"PAYLOAD","MEAN_MOTION_DOT":"-0.00000472","CENTER_NAME":"EARTH","LAUNCH_DATE":"2020-02-17","PERIAPSIS":"546.372","EPOCH":"2023-07-03T01:50:05.104608","OBJECT_ID":"2020-012B","CLASSIFICATION_TYPE":"U","EPHEMERIS_TYPE":"0","TLE_LINE2":"2 45179  53.0550 128.7475 0001217  86.5281 273.5847 15.06399544186389","BSTAR":"-0.00001281500000","APOAPSIS":"548.058","RA_OF_ASC_NODE":"128.7475","DECAY_DATE":null,"OBJECT_NAME":"STARLINK-1143","INCLINATION":"53.0550","NORAD_CAT_ID":"45179","MEAN_ELEMENT_THEORY":"SGP4"},{"EPOCH":"2023-07-02T23:26:11.632128","LAUNCH_DATE":"2020-02-17","PERIAPSIS":"449.680","CENTER_NAME":"EARTH","MEAN_MOTION_DOT":"0.00070569","OBJECT_TYPE":"PAYLOAD","COUNTRY_CODE":"US","ELEMENT_SET_NO":"999","SEMIMAJOR_AXIS":"6828.536","MEAN_MOTION":"15.38549063","MEAN_MOTION_DDOT":"0.0000000000000","MEAN_ANOMALY":"265.7769","REF_FRAME":"TEME","GP_ID":"234683700","ECCENTRICITY":"0.00010560","PERIOD":"93.595","ARG_OF_PERICENTER":"94.3355","TIME_SYSTEM":"UTC","SITE":"AFETR","FILE":"3948109","TLE_LINE1":"1 45180U 20012C   23183.97652352  .00070569  00000-0  18204-2 0  9993","RCS_SIZE":"LARGE","REV_AT_EPOCH":"18689","MEAN_ELEMENT_THEORY":"SGP4","NORAD_CAT_ID":"45180","INCLINATION":"53.0399","OBJECT_NAME":"STARLINK-1192","DECAY_DATE":null,"RA_OF_ASC_NODE":"92.3133","APOAPSIS":"451.122","BSTAR":"0.00182040000000","TLE_LINE2":"2 45180  53.0399  92.3133 0001056  94.3355 265.7769 15.38549063186899","EPHEMERIS_TYPE":"0","CLASSIFICATION_TYPE":"U","OBJECT_ID":"2020-012C"},{"BSTAR":"0.00047079000000","APOAPSIS":"548.111","RA_OF_ASC_NODE":"128.8245","OBJECT_ID":"2020-012D","CLASSIFICATION_TYPE":"U","TLE_LINE2":"2 45181  53.0544 128.8245 0001323  88.6292 271.4848 15.06406044186386","EPHEMERIS_TYPE":"0","INCLINATION":"53.0544","MEAN_ELEMENT_THEORY":"SGP4","NORAD_CAT_ID":"45181","DECAY_DATE":null,"OBJECT_NAME":"STARLINK-1200","TIME_SYSTEM":"UTC","PERIOD":"95.592","ARG_OF_PERICENTER":"88.6292","SITE":"AFETR","ECCENTRICITY":"0.00013230","GP_ID":"234683603","REF_FRAME":"TEME","REV_AT_EPOCH":"18638","TLE_LINE1":"1 45181U 20012D   23184.06265187  .00006739  00000-0  47079-3 0  9992","RCS_SIZE":"LARGE","FILE":"3948098","COUNTRY_CODE":"US","OBJECT_TYPE":"PAYLOAD","PERIAPSIS":"546.279","LAUNCH_DATE":"2020-02-17","MEAN_MOTION_DOT":"0.00006739","CENTER_NAME":"EARTH","EPOCH":"2023-07-03T01:30:13.121568","MEAN_ANOMALY":"271.4848","MEAN_MOTION_DDOT":"0.0000000000000","MEAN_MOTION":"15.06406044","ELEMENT_SET_NO":"999","SEMIMAJOR_AXIS":"6925.330"}];
